[Satellite]
VERSION=1.1
NAME=IRIDIUM 44 [-]
NICKNAME=IRIDIUM 44 [-]
TLE1=1 25078U 97077B   17186.02740866  .00000095  00000-0  24835-4 0  9998
TLE2=2 25078  86.3956   3.9761 0002050 139.5536 220.5815 14.38130442 26164
